NAVSTAR 77 (USA 289)    
1 43873U 18109A   24035.47412552 -.00000010  00000+0  00000+0 0  9998
2 43873  55.2452 126.3132 0028731 193.3122 170.6089  2.00573601 37757
